[{"OBJECT_NAME":"LEMUR-2-PETERG","OBJECT_ID":"2017-042S","EPOCH":"2026-03-09T11:34:35.656032","MEAN_MOTION":15.29611459,"ECCENTRICITY":0.00037,"INCLINATION":97.398,"RA_OF_ASC_NODE":253.6596,"ARG_OF_PERICENTER":341.6938,"MEAN_ANOMALY":18.4169,"EPHEMERIS_TYPE":0,"CLASSIFICATION_TYPE":"U","NORAD_CAT_ID":42841,"ELEMENT_SET_NO":999,"REV_AT_EPOCH":47317,"BSTAR":0.00081076471,"MEAN_MOTION_DOT":0.0002324,"MEAN_MOTION_DDOT":0},{"OBJECT_NAME":"STARLINK-2615","OBJECT_ID":"2021-044AS","EPOCH":"2026-03-09T07:59:46.020192","MEAN_MOTION":15.30189225,"ECCENTRICITY":9.728e-5,"INCLINATION":53.1594,"RA_OF_ASC_NODE":105.3522,"ARG_OF_PERICENTER":93.9178,"MEAN_ANOMALY":266.1934,"EPHEMERIS_TYPE":0,"CLASSIFICATION_TYPE":"U","NORAD_CAT_ID":48678,"ELEMENT_SET_NO":999,"REV_AT_EPOCH":26391,"BSTAR":-9.6376981e-5,"MEAN_MOTION_DOT":-3.211e-5,"MEAN_MOTION_DDOT":0}]
